{"type":"FeatureCollection","features":[{"type":"Feature","geometry":{"type":"Polygon","coordinates":[[[18.90585276088531,60.27803615031125],[18.874532064299625,60.310675018370496],[18.746820308623274,60.29856635006144],[18.68602928327912,60.297275536911094],[18.623409750336428,60.32481732558874],[18.62370955774335,60.34885620121766],[18.685145678080854,60.34720179323904],[18.68760885568137,60.38601210273334],[18.649627320516,60.44789343129332],[18.575154976087745,60.47950330147889],[18.39935027949415,60.54065519400112],[18.36004542707953,60.53919393095044],[18.338648518958568,60.491830729019135],[18.393381205909023,60.3568273545481],[18.3159844049946,60.379464689971925],[18.30914834803959,60.40252181853238],[18.25224699034568,60.436982760881556],[18.177597093375777,60.448172710163384],[18.100702568149618,60.43158107247906],[18.045083734572934,60.400724455206436],[17.99891381391341,60.40147886928464],[17.975294438678826,60.39245157682337],[17.973272216864128,60.34421678300614],[17.966267370935117,60.32944971618007],[17.93120835036228,60.32979592485337],[17.920053776614097,60.30727320097413],[17.86280061966381,60.30138135763844],[17.822943097021504,60.28874300139988],[17.814801725275977,60.26185189179825],[17.79844771398782,60.25105973800337],[17.797069214884598,60.22981373482029],[17.75832794392076,60.22018388048101],[17.756715457795956,60.20349870490001],[17.735062735649475,60.17637956712486],[17.70987167397282,60.16222163357513],[17.71218120119232,60.141341683563674],[17.757038846121386,60.12580991338404],[17.80353251876316,60.14949278550073],[17.851980711986936,60.135934280224944],[17.852557097827148,60.10287013387924],[17.888099913860902,60.10327654110472],[17.903635318134754,60.0871831236888],[17.890407101563184,60.07325391419548],[17.915259997564394,60.06328018793075],[17.985390234360818,60.05852304562376],[17.990678648072258,60.04789529012064],[18.03730210186212,60.023283594463464],[18.049105514359397,60.04332649730455],[18.065988521608688,60.04955583635262],[18.212455723810223,60.02396204042954],[18.26328796875182,60.03454758235882],[18.338906400490906,60.038418268132965],[18.31913916568024,60.0613854744822],[18.350417059249533,60.06587736690394],[18.388772397472916,60.0589942165988],[18.388522973602576,60.04124030709561],[18.444790448738743,60.05860912713738],[18.450773961712585,60.077192937719275],[18.492087758920956,60.10395095987528],[18.49329031581067,60.13771388761741],[18.51421345485334,60.16067053628869],[18.593170557372755,60.16336970525924],[18.594978891000167,60.16322260259355],[18.6767996018696,60.155090184186086],[18.692986061881307,60.176096913041654],[18.672731343206216,60.19462417669528],[18.695998090632997,60.20071387820778],[18.678594700379406,60.23126525120224],[18.683608025813246,60.23932938773571],[18.784506152196993,60.25792071220541],[18.90585276088531,60.27803615031125]]]},"properties":{"lan_code":"03","kom_namn":"Östhammar","id":"0382","geo_point_2d":[60.2547811866,18.2714480392]}},{"type":"Feature","geometry":{"type":"Polygon","coordinates":[[[17.27696719240737,59.169569018855185],[17.223729857165296,59.17604407536267],[17.19174478208412,59.19381019217149],[16.937284060676898,59.205127971519765],[16.882346000138714,59.15091785422004],[16.908396396215355,59.13437094997446],[16.880617779926858,59.111829761105405],[16.925790757026594,59.08658630897966],[16.944779758641012,59.08215556798415],[16.990200968031868,59.055581844737524],[17.009540557358566,59.03043477823166],[17.040611577242746,59.01810592043778],[17.05676341629344,59.02105596067496],[17.12023293281524,58.981954089916414],[17.164404023083822,58.98095751534325],[17.206743227534467,58.96913204214885],[17.220266623077258,58.950857159155746],[17.271666507246547,58.9550285927781],[17.284435940462068,58.94321944980341],[17.31400632279172,58.9367327055945],[17.33464272513214,58.9164262388836],[17.36740762724972,58.933909244274574],[17.385063832253564,58.93375187044602],[17.409032197594186,58.94924870741013],[17.375170206816406,58.9823625608452],[17.375159031269547,58.982384504642354],[17.370733829309074,58.99107778626447],[17.337109503441642,59.031824753916595],[17.336983595857003,59.03197166639755],[17.33279927700006,59.03420548559442],[17.332669708550014,59.03443318716219],[17.3317429123231,59.03547824676696],[17.33157512839549,59.03562926374874],[17.328323517921127,59.04314242079487],[17.328176217878696,59.04328238652962],[17.32684938676369,59.04370352165821],[17.326428981706698,59.04381071630798],[17.32619592633037,59.04390313342981],[17.326042788021795,59.04397138234354],[17.323651178385237,59.046230893095206],[17.32596368424656,59.07017910832786],[17.312093267609384,59.079258029728294],[17.32187912671881,59.137163218431425],[17.3207023765949,59.14010503977925],[17.317376130192283,59.144169019893766],[17.31678364819099,59.144892827518014],[17.316528279008068,59.14520483851659],[17.315816030956853,59.1460748447634],[17.31576730826805,59.146131256195936],[17.307639924882533,59.152383914486585],[17.27696719240737,59.169569018855185]]]},"properties":{"lan_code":"04","kom_namn":"Gnesta","id":"0461","geo_point_2d":[59.0822740358,17.1489275979]}},{"type":"Feature","geometry":{"type":"Polygon","coordinates":[[[17.040611577242746,59.01810592043778],[16.98109630036081,59.03051939491273],[16.882606837671,58.989085595566436],[16.869555149392692,58.962119606185624],[16.88633924777644,58.944607462097125],[16.836440842391514,58.94394040102547],[16.803426454880917,58.94856813257026],[16.767310518127115,58.93404930958143],[16.733452247041466,58.929879173956266],[16.725477836662378,58.89373506720578],[16.672181843985495,58.89669031053938],[16.631592197063437,58.87899375530596],[16.58570442976164,58.89313841089309],[16.55465271853837,58.873148272028445],[16.60566241100939,58.848129226679895],[16.625724343984007,58.82532872706675],[16.604113433458668,58.81672229003761],[16.5951682595212,58.795208288590736],[16.560697718846335,58.77958092653452],[16.499371579427734,58.770149187345275],[16.46413695542905,58.770071524937606],[16.431957356146683,58.78213732352326],[16.346878490368788,58.79550438528915],[16.269064644403812,58.825565566421176],[16.271809052550907,58.82220748792251],[16.289321516255594,58.80071015500111],[16.3102958849331,58.79153942912576],[16.368671691478337,58.75302734968896],[16.3693212446979,58.746722273922124],[16.369875369087673,58.74133780401579],[16.37207432844023,58.73663739322533],[16.370654203680065,58.734396382393356],[16.385802884451614,58.70359268646433],[16.42708480919597,58.697208333216956],[16.4750025276515,58.69632231226406],[16.54166320682952,58.70094352664058],[16.58449867116967,58.697829245281646],[16.648840714839245,58.68187554554329],[16.68977875069823,58.675619794018175],[16.75829932305353,58.63026454716011],[16.750050412479215,58.62712338576908],[16.827377907936057,58.59426811026286],[16.837041892655066,58.59524377942992],[16.850133927266658,58.59667302920791],[16.890091571542236,58.60099434362754],[16.942524144865477,58.584451323716344],[16.972427044552326,58.58099619230259],[17.016420217234824,58.59005288813901],[17.06982890915108,58.59066138028076],[17.08672890901592,58.63467025706812],[17.045139708241244,58.659576077414286],[17.005118152121273,58.67149585545356],[16.993133314685352,58.69167348909213],[17.004620399871246,58.707006050026386],[17.077012185814493,58.69187505167103],[17.125764177299803,58.70333069432506],[17.22818676714234,58.69461665171417],[17.336107999180545,58.66237794197919],[17.39123805312411,58.701557165098535],[17.45261180596617,58.65836277268375],[17.618688391625138,58.6562649531463],[17.618614661113522,58.67292638929804],[17.57436974106756,58.6918563460247],[17.570926708994172,58.74140974311145],[17.464921578291104,58.780135852771025],[17.427872300204985,58.774986146098655],[17.42429086604253,58.81116986322765],[17.36402789678496,58.83035632587909],[17.356050800555696,58.840721649501305],[17.3579851155661,58.87065752040371],[17.38930508334779,58.88268502220966],[17.379573708048643,58.914047469784094],[17.385063832253564,58.93375187044602],[17.36740762724972,58.933909244274574],[17.33464272513214,58.9164262388836],[17.31400632279172,58.9367327055945],[17.284435940462068,58.94321944980341],[17.271666507246547,58.9550285927781],[17.220266623077258,58.950857159155746],[17.206743227534467,58.96913204214885],[17.164404023083822,58.98095751534325],[17.12023293281524,58.981954089916414],[17.05676341629344,59.02105596067496],[17.040611577242746,59.01810592043778]]]},"properties":{"lan_code":"04","kom_namn":"Nyköping","id":"0480","geo_point_2d":[58.7932007093,16.9896911966]}},{"type":"Feature","geometry":{"type":"Polygon","coordinates":[[[16.11449105329777,59.91035231613514],[16.0542181736231,59.897065756018826],[16.03306760899486,59.87611875297149],[16.00363503717154,59.86212530979769],[15.941466979997749,59.850054129279535],[15.943486442849848,59.839346809447655],[15.979279739620909,59.80569825539811],[15.992080888237755,59.76260729306762],[15.996743853446285,59.727673171608906],[15.996581401914426,59.713026190924836],[16.01078061554791,59.67157033974936],[16.02813403951606,59.660412606804236],[16.11266612974055,59.65475236148981],[16.154642927235876,59.66445573277768],[16.245554620254843,59.662217513475035],[16.26364829310672,59.67878346997111],[16.294451667616098,59.71121434150125],[16.282574180311048,59.77438019792561],[16.21717809582089,59.816527676184776],[16.206240753198603,59.85145113211103],[16.122298436625897,59.88196714209162],[16.104496680297945,59.90495990681301],[16.11449105329777,59.91035231613514]]]},"properties":{"lan_code":"19","kom_namn":"Surahammar","id":"1907","geo_point_2d":[59.7672104626,16.1215853528]}},{"type":"Feature","geometry":{"type":"Polygon","coordinates":[[[16.26364829310672,59.67878346997111],[16.245554620254843,59.662217513475035],[16.154642927235876,59.66445573277768],[16.11266612974055,59.65475236148981],[16.095988359443883,59.639801486691255],[16.080879511202948,59.63498657251585],[16.08226551165706,59.604276597758926],[16.11842025804034,59.59717352016575],[16.132511435514367,59.57825745933998],[16.168245706371533,59.55091132587619],[16.17738312500914,59.53507694620762],[16.208279093873774,59.537787461556256],[16.235801273327922,59.516566498133976],[16.210539190569744,59.494284326117025],[16.19988185670383,59.46905006286311],[16.226950302537983,59.46730489911851],[16.254258890392343,59.45245634997319],[16.26312382269248,59.45238828873427],[16.26673649288988,59.48179922617898],[16.23609783291304,59.49164349895774],[16.33051175498677,59.54601673909799],[16.31068587856109,59.586896487312586],[16.32185493372368,59.614782380013594],[16.308990549694787,59.63828282812736],[16.276670883286336,59.66091752488956],[16.26364829310672,59.67878346997111]]]},"properties":{"lan_code":"19","kom_namn":"Hallstahammar","id":"1961","geo_point_2d":[59.588409516,16.2203326548]}},{"type":"Feature","geometry":{"type":"Polygon","coordinates":[[[16.45848898900001,59.19746366655573],[16.381388642048616,59.191407120133654],[16.348856497490292,59.16490757605875],[16.233143284478633,59.15678110763464],[16.212879764226113,59.1453577994564],[16.19525017125097,59.183009147571795],[16.174759433931044,59.197691557469405],[16.10218697982497,59.202838412697524],[16.072982764492806,59.247208430702884],[16.02436530527126,59.26300877705142],[15.892737994887993,59.23048348606218],[15.762037679464507,59.197919167307845],[15.769089346552262,59.18372310267901],[15.962995814658877,59.159790590579796],[16.0130798768041,59.148797687115696],[16.037474936171467,59.12915594934774],[16.04619325097107,59.10293733754252],[16.10865951219855,59.06378961766605],[16.10934806006628,59.055421316692424],[16.144058791805907,59.03987509812579],[16.157645702486395,59.021353770882726],[16.118695877377935,59.02314009518001],[16.06398700853188,58.99798925252662],[16.007109880362215,58.97881113898724],[15.986468016322998,58.95268374727736],[15.967410163645962,58.94715438682477],[15.993609715716557,58.937317517458595],[16.053848543356892,58.92741691074778],[16.08129323973079,58.917414226877504],[16.085139236777025,58.91408443950853],[16.088920717441372,58.908290723858904],[16.093816329837644,58.905734144191044],[16.09913834256788,58.89929739365632],[16.100289592168075,58.89404072819998],[16.102179194458348,58.885795336387105],[16.108283510857444,58.885314404798514],[16.11090505007667,58.885658365318044],[16.112095064169836,58.88540868277761],[16.112032914942674,58.88527967501139],[16.112164862119815,58.8850123574496],[16.112913934003473,58.88493355172371],[16.11359641399084,58.88482609144435],[16.1136690983213,58.88495608808591],[16.114585514670956,58.88465765729673],[16.11478011818088,58.8844424148768],[16.115733565316216,58.884084860839636],[16.116229895386656,58.88411080138773],[16.117239284595744,58.8837970205018],[16.1176484195749,58.88379002045276],[16.11785656679844,58.883763123639525],[16.11791203121646,58.88366441156806],[16.117908700806716,58.88348494948403],[16.11865806627453,58.882745778099896],[16.118998002359632,58.882679416840936],[16.119335507420168,58.88221749003348],[16.11916024777674,58.88213753133446],[16.119019030035016,58.88214104529042],[16.11893475640656,58.882129099137416],[16.119733502123264,58.88153466812568],[16.12011499252506,58.881604737019664],[16.120180426514988,58.88158295766823],[16.12073577004455,58.881472059862],[16.12317717024374,58.88110841438168],[16.12340868036353,58.8812159894302],[16.123783887924606,58.8813633372844],[16.123977662809278,58.88110237677616],[16.124158637167717,58.88076044135181],[16.125476415558637,58.8803156559592],[16.125434773989173,58.88046820525368],[16.126540062951438,58.88045867015597],[16.126738674958,58.88044334238458],[16.127355935698407,58.87985965955187],[16.12729351520421,58.879743477053125],[16.1280990482551,58.879446636426636],[16.128385878878134,58.87944414454456],[16.128534939350367,58.87943145501261],[16.128621104481752,58.87933583149417],[16.1298838503172,58.87885564748235],[16.1299421206186,58.878762475544654],[16.130213358866158,58.87864392877729],[16.130309619118474,58.87866280515972],[16.130504608254892,58.87873010567154],[16.13084447636952,58.87843405587489],[16.13121896204192,58.8781092782992],[16.13129184321217,58.87804292715031],[16.131381925903067,58.87796575908719],[16.131496428979908,58.87794607855184],[16.131627276993374,58.87796824835615],[16.131738643897418,58.8780577398877],[16.131808421518098,58.87813993641712],[16.132068260363898,58.878079352504535],[16.1320890040351,58.877980550537735],[16.132084896036606,58.877774084483356],[16.132217522679287,58.87768057816505],[16.132402322460262,58.877652091332585],[16.132688170608876,58.877628926835094],[16.13274813733016,58.87759807788569],[16.13299722226383,58.87753837338034],[16.13319459798501,58.87755582916357],[16.135170688377986,58.87683263634583],[16.18232062559114,58.853868428504256],[16.198316852020422,58.83798681563602],[16.19891803526685,58.837168052786076],[16.219788298539424,58.838353641723664],[16.238080755825425,58.835768330072085],[16.263610735658716,58.83223309467676],[16.269064644403812,58.825565566421176],[16.346878490368788,58.79550438528915],[16.431957356146683,58.78213732352326],[16.46413695542905,58.770071524937606],[16.499371579427734,58.770149187345275],[16.560697718846335,58.77958092653452],[16.5951682595212,58.795208288590736],[16.604113433458668,58.81672229003761],[16.625724343984007,58.82532872706675],[16.60566241100939,58.848129226679895],[16.55465271853837,58.873148272028445],[16.490910235167433,58.898404502141624],[16.471275945355664,58.89614381779682],[16.4179372670562,58.917710101936116],[16.43800651227118,58.9268643353964],[16.48402129339652,58.917876749675],[16.527605981357983,58.946708076630905],[16.49063899139132,58.96346907299747],[16.501992306177204,58.976823748603636],[16.544344067517066,58.9953939765874],[16.566721665471558,59.02948495835852],[16.541127791379715,59.03069915861543],[16.51059127316749,59.060995717776045],[16.524353406678784,59.08033984404922],[16.463321067654892,59.10066726218909],[16.458268650757624,59.131451137637114],[16.464132377027315,59.187939880933925],[16.45848898900001,59.19746366655573]]]},"properties":{"lan_code":"04","kom_namn":"Katrineholm","id":"0483","geo_point_2d":[59.0134718195,16.2667176557]}},{"type":"Feature","geometry":{"type":"Polygon","coordinates":[[[17.618614661113522,58.67292638929804],[17.66676391294182,58.695990900969576],[17.79412091529222,58.67092668330299],[17.794396229523326,58.671573169471124],[17.794810670871733,58.671484133205155],[17.786946024923697,58.777938623255714],[17.72609042856128,58.79740175418901],[17.717579465087503,58.815201721444005],[17.66861236311649,58.82628165945068],[17.652233878454634,58.85998934958495],[17.660732475538282,58.86657614909826],[17.65141631056799,58.87523993627983],[17.65475958855735,58.89327647644798],[17.63808036276868,58.8995795159538],[17.63187674588997,58.90319606503016],[17.636148500077173,58.90836519588079],[17.625184940397187,58.93502030155465],[17.596690886484357,58.9444374292643],[17.57823064497671,58.94786380863157],[17.569661761914347,58.952413855864144],[17.566045390536864,58.951870506638656],[17.56247944678607,58.950810940732396],[17.559200537295045,58.95181076266153],[17.557257736183963,58.953595124886625],[17.557101135870333,58.95636823385069],[17.555921902531196,58.957276690258304],[17.55745186464993,58.95745803148357],[17.55705966272516,58.95829298259032],[17.557765155196247,58.95853038718939],[17.556244290027472,58.96021024777101],[17.5495699463445,58.96276778198874],[17.542487824070353,58.97186078127474],[17.5534951636458,58.982449766570745],[17.536839082075556,58.98151517828714],[17.531186254496912,58.9822083282304],[17.522665039231367,58.98300852523761],[17.516921647800988,58.98304591781993],[17.446672387152304,58.990510320399075],[17.439126971512987,58.981279485151354],[17.412535179625927,58.983212161936066],[17.39397131790181,58.9822703028687],[17.383127004060945,58.98482259026144],[17.375159031269547,58.982384504642354],[17.375170206816406,58.9823625608452],[17.409032197594186,58.94924870741013],[17.385063832253564,58.93375187044602],[17.379573708048643,58.914047469784094],[17.38930508334779,58.88268502220966],[17.3579851155661,58.87065752040371],[17.356050800555696,58.840721649501305],[17.36402789678496,58.83035632587909],[17.42429086604253,58.81116986322765],[17.427872300204985,58.774986146098655],[17.464921578291104,58.780135852771025],[17.570926708994172,58.74140974311145],[17.57436974106756,58.6918563460247],[17.618614661113522,58.67292638929804]]]},"properties":{"lan_code":"04","kom_namn":"Trosa","id":"0488","geo_point_2d":[58.829279222,17.5680796988]}},{"type":"Feature","geometry":{"type":"Polygon","coordinates":[[[18.177597093375777,60.448172710163384],[18.172123515115466,60.473675994969554],[18.020767129963648,60.64339871389186],[17.95510793150335,60.64399468761495],[17.682611404124664,60.56299668894996],[17.70687613462934,60.60358305303742],[17.659725665531774,60.59954910033473],[17.57377352517728,60.57615049342325],[17.54573463733048,60.56414718460062],[17.51535417731129,60.56208612915819],[17.472879532419626,60.535039646002424],[17.477633848222254,60.48997826677446],[17.433833610799894,60.46346250409212],[17.320908403562544,60.47025940937613],[17.323106301576182,60.44750828176062],[17.287808152892058,60.446772066947],[17.257553250789105,60.4250974092339],[17.217640805343198,60.43396035182877],[17.21733508704848,60.41961700623011],[17.195527904838112,60.4104824692245],[17.193400892604718,60.3889105134339],[17.189082484716835,60.382267907629355],[17.212607606134092,60.36422267607586],[17.19701993218719,60.34540232440946],[17.193815814023903,60.30081207098145],[17.209522942424567,60.302700722258095],[17.24818390048802,60.286036435702975],[17.284554463589938,60.258703488648365],[17.345837182948355,60.24565105137711],[17.375114808816967,60.22843675630914],[17.3586883662987,60.19361635535633],[17.32175618512162,60.13350453745762],[17.36447038027575,60.15104927875985],[17.400023698267358,60.14516513759156],[17.463787309690165,60.1789029439196],[17.491632558237015,60.170282525768556],[17.513640956155214,60.134463129670706],[17.573314760949167,60.089452736678226],[17.62662431441577,60.096688268555624],[17.609672144280406,60.110108724458875],[17.63875032051711,60.12133895238902],[17.715857242225027,60.134389949068215],[17.71218120119232,60.141341683563674],[17.70987167397282,60.16222163357513],[17.735062735649475,60.17637956712486],[17.756715457795956,60.20349870490001],[17.75832794392076,60.22018388048101],[17.797069214884598,60.22981373482029],[17.79844771398782,60.25105973800337],[17.814801725275977,60.26185189179825],[17.822943097021504,60.28874300139988],[17.86280061966381,60.30138135763844],[17.920053776614097,60.30727320097413],[17.93120835036228,60.32979592485337],[17.966267370935117,60.32944971618007],[17.973272216864128,60.34421678300614],[17.975294438678826,60.39245157682337],[17.99891381391341,60.40147886928464],[18.045083734572934,60.400724455206436],[18.100702568149618,60.43158107247906],[18.177597093375777,60.448172710163384]]]},"properties":{"lan_code":"03","kom_namn":"Tierp","id":"0360","geo_point_2d":[60.3887997995,17.6669200396]}},{"type":"Feature","geometry":{"type":"Polygon","coordinates":[[[17.538571100415123,59.733286882202094],[17.409510401352012,59.73211748756471],[17.381091164600864,59.78022831380792],[17.314592138634772,59.793328957399765],[17.281466494388297,59.783870619749074],[17.242260916803108,59.806846003338784],[17.213473284018534,59.83293519451659],[17.182306844494697,59.83047177525671],[17.154974306504293,59.851505247615265],[17.169891443162022,59.86349845876522],[17.118856032869488,59.88307363213711],[17.077502140997737,59.85857073298654],[17.002457383394585,59.828454807326],[16.960972605492003,59.86239619546033],[16.909785708428643,59.8683828470745],[16.858497225283376,59.865877414953324],[16.799012501259096,59.88150057575731],[16.80055742370399,59.87307992225431],[16.800553467056424,59.87240578812425],[16.800581933082885,59.87150885564431],[16.81449742184018,59.86704949870364],[16.822341906954527,59.8649695128652],[16.826984484750852,59.86450293155799],[16.828730289182147,59.864336036088],[16.83655289437657,59.85994129709543],[16.827678575302304,59.85627636123914],[16.81837103132542,59.85243100051581],[16.808507461914967,59.84892379628056],[16.810153413376916,59.81944429858472],[16.799274111665426,59.81445509190703],[16.78715021869797,59.811269587803956],[16.785888429496374,59.80839524520767],[16.787917871987368,59.80772707844495],[16.785098818332422,59.80633879558301],[16.770025627597544,59.802752826625586],[16.769697998570376,59.80246425262436],[16.76491395280098,59.80210687542577],[16.7649622377014,59.80192699336808],[16.764764055926825,59.796883635437155],[16.761751660322727,59.79564186686698],[16.753681125818407,59.79174857045864],[16.75350152797514,59.791067649043356],[16.74377879521591,59.78541029858392],[16.728958496510423,59.7767628008779],[16.775768440438732,59.74644456627295],[16.78205132136042,59.726486569575265],[16.78107596609404,59.724235497851026],[16.815673450551937,59.710336538454136],[16.824107133494895,59.688760536201926],[16.85480955826111,59.66660304201217],[16.873239016329013,59.62773524262076],[16.873574255930617,59.62738767448153],[16.917402604013407,59.56471466477605],[16.926024432845722,59.546377560808295],[16.965907704287872,59.52035201287262],[17.030155034746052,59.508400239063995],[17.064000451783855,59.51099867034716],[17.08388276549941,59.53070877678044],[17.117838007286814,59.526272599125996],[17.150058546672213,59.50782153932004],[17.159038323338127,59.48533820739388],[17.20781948406081,59.46260151307613],[17.23218502109033,59.45778825339073],[17.29066204578306,59.44622936256386],[17.31119137482489,59.43768080652857],[17.353914616909954,59.43778195780329],[17.364955398491613,59.41662834067286],[17.389078166441028,59.41407169366608],[17.383359040600045,59.39685050193764],[17.415095113783682,59.383465254897125],[17.43203722359455,59.397057385799584],[17.425784147286183,59.4204975662125],[17.43571463259679,59.44174059961431],[17.453108483798378,59.446531111946136],[17.50434947321921,59.44053926315075],[17.502065888189815,59.45981535136096],[17.48179811314793,59.4854215101069],[17.464817350620244,59.50739744381054],[17.433681105444524,59.54661306685171],[17.40968443401392,59.56047789833708],[17.37778450901234,59.5972838696407],[17.38509841427289,59.630813328704],[17.421879594355108,59.659596122557694],[17.47410855714674,59.66643526993278],[17.50891791645446,59.68365863918832],[17.536451519476163,59.72038718025327],[17.538571100415123,59.733286882202094]]]},"properties":{"lan_code":"03","kom_namn":"Enköping","id":"0381","geo_point_2d":[59.6631826117,17.1434867457]}},{"type":"Feature","geometry":{"type":"Polygon","coordinates":[[[17.22818676714234,58.69461665171417],[17.125764177299803,58.70333069432506],[17.077012185814493,58.69187505167103],[17.004620399871246,58.707006050026386],[16.993133314685352,58.69167348909213],[17.005118152121273,58.67149585545356],[17.045139708241244,58.659576077414286],[17.08672890901592,58.63467025706812],[17.167293255246673,58.639762385942284],[17.191384405716228,58.63697699446854],[17.1995728123939,58.652519622349324],[17.23342925180035,58.666637222572355],[17.22818676714234,58.69461665171417]]]},"properties":{"lan_code":"04","kom_namn":"Oxelösund","id":"0481","geo_point_2d":[58.6721047703,17.1181455372]}},{"type":"Feature","geometry":{"type":"Polygon","coordinates":[[[16.226950302537983,59.46730489911851],[16.192133275332182,59.45094050123026],[16.10793626121743,59.45923813351919],[16.08442026393082,59.471913055548065],[16.055666005121925,59.470699084198806],[16.006246535248962,59.47955671118167],[15.962199272790738,59.46890188467245],[15.937814646330454,59.48167544144414],[15.904739893630303,59.46577165232038],[15.867758114872421,59.457924143981714],[15.885657873183083,59.424507680475514],[15.952891644251775,59.41002295103668],[15.97829561283534,59.39540452036787],[15.9964443415585,59.359541098614066],[16.03512872205868,59.369261522456114],[16.072322589897755,59.35196871967308],[16.105182599140285,59.35049869716356],[16.11307331538887,59.35029335688281],[16.156657428650412,59.346451203234146],[16.156698945471835,59.34642762675521],[16.181160318670237,59.35204118333315],[16.185191703365074,59.35217758444802],[16.19211564756921,59.35373699670855],[16.203527751903124,59.35850035801189],[16.209577992395065,59.35980136200915],[16.210327113837028,59.3599606314083],[16.211671536774436,59.360095615172355],[16.235612196051108,59.35996551089669],[16.24062714991058,59.3602855944865],[16.244727207281752,59.360514012587956],[16.266484733275487,59.36195201357715],[16.273628370671172,59.38854657907057],[16.2802018071894,59.393190718938214],[16.300200870895594,59.39770830468228],[16.3055285395703,59.399411491637885],[16.29892248342621,59.39922116989929],[16.272988493525226,59.40504677241673],[16.269265505591903,59.40637578860912],[16.2619819259336,59.409242420188676],[16.261866934263775,59.40920242721603],[16.26178970983699,59.40902315593832],[16.261563014075474,59.409023946659616],[16.247545275882306,59.42621586099496],[16.24785886406167,59.429802246685334],[16.248012863529173,59.43189223457384],[16.24819678778348,59.43330106273611],[16.24880882951376,59.44020763818142],[16.254258890392343,59.45245634997319],[16.226950302537983,59.46730489911851]]]},"properties":{"lan_code":"19","kom_namn":"Kungsör","id":"1960","geo_point_2d":[59.4152749872,16.0867950031]}},{"type":"Feature","geometry":{"type":"Polygon","coordinates":[[[17.71218120119232,60.141341683563674],[17.715857242225027,60.134389949068215],[17.63875032051711,60.12133895238902],[17.609672144280406,60.110108724458875],[17.62662431441577,60.096688268555624],[17.573314760949167,60.089452736678226],[17.513640956155214,60.134463129670706],[17.491632558237015,60.170282525768556],[17.463787309690165,60.1789029439196],[17.400023698267358,60.14516513759156],[17.36447038027575,60.15104927875985],[17.32175618512162,60.13350453745762],[17.308537510092062,60.10711327190116],[17.302702034524952,60.06457975253772],[17.279326985485362,60.04369358022795],[17.252248665499902,60.03858125917258],[17.206755702064378,60.0447974183902],[17.160013716989862,60.00662866730413],[17.084604859083775,59.9906361013625],[17.07985585192169,59.9722291616433],[17.124427379670536,59.97109734003718],[17.12920675581168,59.94592671378564],[17.127860094894405,59.88791397413842],[17.118856032869488,59.88307363213711],[17.169891443162022,59.86349845876522],[17.154974306504293,59.851505247615265],[17.182306844494697,59.83047177525671],[17.213473284018534,59.83293519451659],[17.242260916803108,59.806846003338784],[17.281466494388297,59.783870619749074],[17.314592138634772,59.793328957399765],[17.381091164600864,59.78022831380792],[17.409510401352012,59.73211748756471],[17.538571100415123,59.733286882202094],[17.56520671338546,59.734059546291405],[17.60990574779649,59.74472540880603],[17.62206521790025,59.77309952390583],[17.66045835955853,59.78616612243881],[17.69549587023009,59.76689575174814],[17.756992419426254,59.777831996837904],[17.77095735370582,59.80052107881346],[17.80455211245758,59.82388725948697],[17.879450162890354,59.81383105530626],[17.90145565247301,59.818516946228684],[17.961401271686665,59.80723424943933],[18.0066238700359,59.81178569515987],[18.02791596613256,59.82683610148487],[18.065370538820208,59.80939143360684],[18.152965197913925,59.822510377974645],[18.197700447786044,59.83154261387093],[18.21967601760034,59.828181004058],[18.25957678173461,59.835917450831964],[18.27341297102828,59.850585612168025],[18.33730576889012,59.86342156049362],[18.36473930178823,59.864513327910835],[18.40388257645747,59.899229620532346],[18.37728382585347,59.936356689918014],[18.390282934446997,59.95361426957732],[18.423373152852832,59.95632510891104],[18.427216804472753,59.98185574833138],[18.450509483295914,59.99310374560195],[18.45964739190966,59.993654947580076],[18.467915681108476,60.007182061215076],[18.417745720287588,60.025300469011626],[18.388522973602576,60.04124030709561],[18.388772397472916,60.0589942165988],[18.350417059249533,60.06587736690394],[18.31913916568024,60.0613854744822],[18.338906400490906,60.038418268132965],[18.26328796875182,60.03454758235882],[18.212455723810223,60.02396204042954],[18.065988521608688,60.04955583635262],[18.049105514359397,60.04332649730455],[18.03730210186212,60.023283594463464],[17.990678648072258,60.04789529012064],[17.985390234360818,60.05852304562376],[17.915259997564394,60.06328018793075],[17.890407101563184,60.07325391419548],[17.903635318134754,60.0871831236888],[17.888099913860902,60.10327654110472],[17.852557097827148,60.10287013387924],[17.851980711986936,60.135934280224944],[17.80353251876316,60.14949278550073],[17.757038846121386,60.12580991338404],[17.71218120119232,60.141341683563674]]]},"properties":{"lan_code":"03","kom_namn":"Uppsala","id":"0380","geo_point_2d":[59.9449428885,17.7164863684]}},{"type":"Feature","geometry":{"type":"Polygon","coordinates":[[[15.681751058582703,59.93792237120732],[15.625886344343446,59.9358675873137],[15.601981577784084,59.94805519776827],[15.531232382199768,59.957161919561926],[15.492968188317745,59.93603668302072],[15.479380606787803,59.914233944363524],[15.479747661180506,59.91063263574565],[15.445742808861848,59.878851425788206],[15.438522842926709,59.871175565659875],[15.42223846699992,59.85414539349269],[15.45696545273099,59.83530797268049],[15.456111213024373,59.82108258359959],[15.425875729290437,59.79555835135458],[15.505398289767156,59.79607248138523],[15.526773475606673,59.753015252291455],[15.534230855660452,59.74442485694647],[15.553226232215215,59.72590759465022],[15.550370381600173,59.699171933090156],[15.607172269454178,59.69755921280739],[15.646819367829318,59.6829916321206],[15.726771057442306,59.68559311256462],[15.748945359958952,59.68291083139607],[15.774456355281666,59.648135712575794],[15.807206382951016,59.647830873895714],[15.820731391542903,59.63167104439988],[15.905811773238531,59.66889568641436],[15.96485888311144,59.6663579909142],[15.973441490440875,59.69435893110842],[15.996581401914426,59.713026190924836],[15.996743853446285,59.727673171608906],[15.992080888237755,59.76260729306762],[15.979279739620909,59.80569825539811],[15.943486442849848,59.839346809447655],[15.941466979997749,59.850054129279535],[15.921130961639344,59.85481328263947],[15.864005190416773,59.895072656780805],[15.806720046703918,59.890301281066364],[15.771752466534322,59.881021332871605],[15.760874675748523,59.9085934620317],[15.722279900358204,59.90527492700156],[15.681751058582703,59.93792237120732]]]},"properties":{"lan_code":"19","kom_namn":"Skinnskatteberg","id":"1904","geo_point_2d":[59.7970853574,15.7211771891]}},{"type":"Feature","geometry":{"type":"Polygon","coordinates":[[[18.152965197913925,59.822510377974645],[18.065370538820208,59.80939143360684],[18.02791596613256,59.82683610148487],[18.0066238700359,59.81178569515987],[17.961401271686665,59.80723424943933],[17.90145565247301,59.818516946228684],[17.879450162890354,59.81383105530626],[17.80455211245758,59.82388725948697],[17.77095735370582,59.80052107881346],[17.756992419426254,59.777831996837904],[17.69549587023009,59.76689575174814],[17.66045835955853,59.78616612243881],[17.62206521790025,59.77309952390583],[17.60990574779649,59.74472540880603],[17.64110082058379,59.73097352564529],[17.62953593208904,59.69421181339935],[17.644029697856688,59.69345494066071],[17.6556656210907,59.69279683324815],[17.722372871118097,59.68380807564004],[17.72504379434293,59.674367364411864],[17.757720908034198,59.66314519877826],[17.758866666200603,59.664070715068476],[17.778343981950616,59.690627558471675],[17.82541776381945,59.679958404931405],[17.825598360237816,59.6801145636373],[17.82578297460874,59.68027416263834],[17.825883695059886,59.68036115031064],[17.827790489393884,59.68200934701981],[17.850642124867885,59.69776937448227],[17.909834128554618,59.709678106112236],[17.915487755516047,59.71020609479128],[17.94669670687963,59.71347301630909],[17.981012371099983,59.726705560302555],[17.983926321199558,59.72921960661713],[18.010579636216864,59.738634432657335],[18.010790046537736,59.73916494312991],[18.01210568951494,59.741059997948255],[18.01781871359767,59.74030757969837],[18.017726205104623,59.74047966805171],[18.017786851980322,59.74099778239815],[18.02006897397776,59.74199994595981],[18.020496681450506,59.741955469632614],[18.02140088620513,59.74173476034847],[18.020346622325217,59.74532712985312],[18.021846591007343,59.7449586222967],[18.027733774350843,59.74043462652625],[18.03372956374752,59.73892644177603],[18.040352072316725,59.73763900533738],[18.053997150017953,59.74330057662206],[18.057632185867664,59.74315354976732],[18.060950856630814,59.742227256124494],[18.06255926328899,59.74187805669346],[18.085167038555863,59.73855669200112],[18.107768097171487,59.757767564425365],[18.119625446577405,59.80480341297039],[18.130692031309835,59.81904760557598],[18.152965197913925,59.822510377974645]]]},"properties":{"lan_code":"03","kom_namn":"Knivsta","id":"0330","geo_point_2d":[59.7543110426,17.8578890127]}},{"type":"Feature","geometry":{"type":"Polygon","coordinates":[[[17.20781948406081,59.46260151307613],[17.159038323338127,59.48533820739388],[17.150058546672213,59.50782153932004],[17.117838007286814,59.526272599125996],[17.08388276549941,59.53070877678044],[17.064000451783855,59.51099867034716],[17.030155034746052,59.508400239063995],[16.965907704287872,59.52035201287262],[16.95059898370912,59.49396167871514],[16.90628290853119,59.47957554132364],[16.883018859838813,59.481176057268144],[16.833817010691714,59.49839512795109],[16.756898574271755,59.502025049956146],[16.702413326094206,59.48772100204659],[16.69776656742226,59.47012387003087],[16.71745679606029,59.45694580093287],[16.788873098825945,59.42105072218367],[16.829681883291006,59.40438603882375],[16.83453631472547,59.39153523262615],[16.825014473471242,59.35669849073873],[16.83442207844434,59.30843854660915],[16.840170136773878,59.23847805998001],[16.843338015159134,59.22647302353574],[16.88704821026778,59.2139503919883],[16.929208511205054,59.21232565010018],[16.937284060676898,59.205127971519765],[17.19174478208412,59.19381019217149],[17.223729857165296,59.17604407536267],[17.27696719240737,59.169569018855185],[17.266730251924155,59.18820188033744],[17.266472393769426,59.1885076282302],[17.24799589977644,59.19929493517194],[17.274815676095653,59.24555396027634],[17.289255264726524,59.24644676858896],[17.29303535400301,59.24703502776184],[17.310367532860578,59.26633422129903],[17.341561047882976,59.27359919498386],[17.350583681734996,59.31992775407864],[17.33504599777761,59.351740890883356],[17.42561071501634,59.35134498838905],[17.410916308158342,59.36622084091839],[17.415095113783682,59.383465254897125],[17.383359040600045,59.39685050193764],[17.389078166441028,59.41407169366608],[17.364955398491613,59.41662834067286],[17.353914616909954,59.43778195780329],[17.31119137482489,59.43768080652857],[17.29066204578306,59.44622936256386],[17.23218502109033,59.45778825339073],[17.20781948406081,59.46260151307613]]]},"properties":{"lan_code":"04","kom_namn":"Strängnäs","id":"0486","geo_point_2d":[59.3563301892,17.069277288]}},{"type":"Feature","geometry":{"type":"Polygon","coordinates":[[[16.728958496510423,59.7767628008779],[16.677602695579008,59.791306886300674],[16.67463527436083,59.7717851530497],[16.636597641515802,59.75871748415199],[16.600277329742365,59.766103901550444],[16.547873563617497,59.81114666938424],[16.506622568302884,59.82254063764919],[16.455356362012257,59.84554895249923],[16.410552008938105,59.82406476213471],[16.357225861800856,59.80781218364691],[16.340699032603645,59.79287127658154],[16.305614784757463,59.78673562695327],[16.282574180311048,59.77438019792561],[16.294451667616098,59.71121434150125],[16.26364829310672,59.67878346997111],[16.276670883286336,59.66091752488956],[16.308990549694787,59.63828282812736],[16.32185493372368,59.614782380013594],[16.31068587856109,59.586896487312586],[16.33051175498677,59.54601673909799],[16.23609783291304,59.49164349895774],[16.26673649288988,59.48179922617898],[16.26312382269248,59.45238828873427],[16.300544955598674,59.45760194194513],[16.322702143895082,59.452879757393845],[16.37150554056558,59.46728475385336],[16.422381203233723,59.46100445596543],[16.443716719168734,59.46328140543178],[16.5374611461486,59.47337693884938],[16.542820200955482,59.47396122797955],[16.554863099109777,59.475280618250764],[16.597123115000763,59.47983480380905],[16.619567265288488,59.482078401065436],[16.62409789178576,59.48264741315602],[16.659484145293984,59.48990829963136],[16.662131767105464,59.49040281057161],[16.687659425182165,59.48955466055458],[16.702413326094206,59.48772100204659],[16.756898574271755,59.502025049956146],[16.833817010691714,59.49839512795109],[16.883018859838813,59.481176057268144],[16.90628290853119,59.47957554132364],[16.95059898370912,59.49396167871514],[16.965907704287872,59.52035201287262],[16.926024432845722,59.546377560808295],[16.917402604013407,59.56471466477605],[16.873574255930617,59.62738767448153],[16.873239016329013,59.62773524262076],[16.85480955826111,59.66660304201217],[16.824107133494895,59.688760536201926],[16.815673450551937,59.710336538454136],[16.78107596609404,59.724235497851026],[16.78205132136042,59.726486569575265],[16.775768440438732,59.74644456627295],[16.728958496510423,59.7767628008779]]]},"properties":{"lan_code":"19","kom_namn":"Västerås","id":"1980","geo_point_2d":[59.6279569187,16.567376271]}},{"type":"Feature","geometry":{"type":"Polygon","coordinates":[[[15.996581401914426,59.713026190924836],[15.973441490440875,59.69435893110842],[15.96485888311144,59.6663579909142],[15.905811773238531,59.66889568641436],[15.820731391542903,59.63167104439988],[15.807206382951016,59.647830873895714],[15.774456355281666,59.648135712575794],[15.748945359958952,59.68291083139607],[15.726771057442306,59.68559311256462],[15.646819367829318,59.6829916321206],[15.607172269454178,59.69755921280739],[15.550370381600173,59.699171933090156],[15.524537365178437,59.67693085375106],[15.525576535040056,59.670742683326104],[15.512539680805219,59.65255571420824],[15.521210659024176,59.63351016092224],[15.565094868094784,59.62703746658337],[15.615686537898831,59.63046745528507],[15.623301577820417,59.598223092608706],[15.630474486847936,59.52890704638324],[15.639152566975355,59.521354525840415],[15.6404518621848,59.52151408528845],[15.704747871331504,59.538943399249725],[15.713399609485645,59.525748142957426],[15.75083475052003,59.532194193900004],[15.793513625993077,59.48627510190545],[15.820930591825126,59.46836216174804],[15.832247596982514,59.44762854241008],[15.867758114872421,59.457924143981714],[15.904739893630303,59.46577165232038],[15.937814646330454,59.48167544144414],[15.962199272790738,59.46890188467245],[16.006246535248962,59.47955671118167],[16.055666005121925,59.470699084198806],[16.08442026393082,59.471913055548065],[16.10793626121743,59.45923813351919],[16.192133275332182,59.45094050123026],[16.226950302537983,59.46730489911851],[16.19988185670383,59.46905006286311],[16.210539190569744,59.494284326117025],[16.235801273327922,59.516566498133976],[16.208279093873774,59.537787461556256],[16.17738312500914,59.53507694620762],[16.168245706371533,59.55091132587619],[16.132511435514367,59.57825745933998],[16.11842025804034,59.59717352016575],[16.08226551165706,59.604276597758926],[16.080879511202948,59.63498657251585],[16.095988359443883,59.639801486691255],[16.11266612974055,59.65475236148981],[16.02813403951606,59.660412606804236],[16.01078061554791,59.67157033974936],[15.996581401914426,59.713026190924836]]]},"properties":{"lan_code":"19","kom_namn":"Köping","id":"1983","geo_point_2d":[59.5746132129,15.8878935235]}},{"type":"Feature","geometry":{"type":"Polygon","coordinates":[[[17.70687613462934,60.60358305303742],[17.707976590835365,60.630622516122564],[17.635582652519297,60.65210667381001],[17.556592763161888,60.66757582451568],[17.49638961687419,60.662171042591815],[17.4619409228025,60.64730159350959],[17.419119457986422,60.659536389479314],[17.37813853094762,60.6630005985669],[17.370050223855426,60.65430878237694],[17.369295881550286,60.65305173099117],[17.371230192040823,60.65212080533515],[17.372039817372563,60.6516372895323],[17.373572706965234,60.65033553972555],[17.3732307394074,60.64942375739826],[17.372489060057614,60.64737305304725],[17.37082038093381,60.64272372332072],[17.367136752183562,60.631913900534634],[17.36551803984479,60.62584437687622],[17.35696947584366,60.60548300411372],[17.350030958533704,60.58849492320846],[17.349005534099486,60.5861269114081],[17.330652326322515,60.553327056129724],[17.330625880494438,60.553276641111786],[17.30271914586263,60.50889404964732],[17.302712262627857,60.50881058248972],[17.302687506700764,60.50853429552867],[17.302326327626357,60.50448284811577],[17.301918107942072,60.499901776435486],[17.291822570894112,60.45730050675563],[17.289642555117744,60.45453433288728],[17.28820616699376,60.44872479881325],[17.287904518645217,60.447244242786546],[17.287808152892058,60.446772066947],[17.323106301576182,60.44750828176062],[17.320908403562544,60.47025940937613],[17.433833610799894,60.46346250409212],[17.477633848222254,60.48997826677446],[17.472879532419626,60.535039646002424],[17.51535417731129,60.56208612915819],[17.54573463733048,60.56414718460062],[17.57377352517728,60.57615049342325],[17.659725665531774,60.59954910033473],[17.70687613462934,60.60358305303742]]]},"properties":{"lan_code":"03","kom_namn":"Älvkarleby","id":"0319","geo_point_2d":[60.5761584379,17.4659868343]}},{"type":"Feature","geometry":{"type":"Polygon","coordinates":[[[15.967410163645962,58.94715438682477],[15.986468016322998,58.95268374727736],[16.007109880362215,58.97881113898724],[16.06398700853188,58.99798925252662],[16.118695877377935,59.02314009518001],[16.157645702486395,59.021353770882726],[16.144058791805907,59.03987509812579],[16.10934806006628,59.055421316692424],[16.10865951219855,59.06378961766605],[16.04619325097107,59.10293733754252],[16.037474936171467,59.12915594934774],[16.0130798768041,59.148797687115696],[15.962995814658877,59.159790590579796],[15.769089346552262,59.18372310267901],[15.787920696792387,59.13691899974523],[15.787728651867559,59.13662720002139],[15.78777930948893,59.13540006203708],[15.787782228523543,59.135330306431065],[15.787794785950148,59.135020312285995],[15.787820431381173,59.134216553507336],[15.787879045966518,59.1334506839347],[15.789964747600953,59.13116939842787],[15.790284709328562,59.13082604527666],[15.791616088185611,59.1293969698106],[15.792017005612806,59.12897183656046],[15.792129096532587,59.12885285386004],[15.792595017778385,59.1283576511908],[15.79761760827382,59.12287115646055],[15.790844434864924,59.1213684855307],[15.79233723570345,59.11688227543386],[15.790825328539091,59.116787570763094],[15.790382312397837,59.116357220218774],[15.789500702527617,59.11531292995275],[15.783655442712503,59.106234947247835],[15.781784131397137,59.1055689164359],[15.776303345623473,59.10438837590727],[15.773035218541661,59.1057784801322],[15.770373218464483,59.10642820298628],[15.76893263663946,59.10621870735168],[15.75989513443234,59.10494447086647],[15.757261340942103,59.105469861359204],[15.75561092743303,59.105802117780264],[15.729325011252275,59.10542381206551],[15.720653349288764,59.1028838998164],[15.719999762823306,59.102692429464874],[15.717911369380321,59.10198492694715],[15.717163394793673,59.10185693305578],[15.7171212164249,59.10174029338081],[15.716632573467514,59.101746232918934],[15.714696301788468,59.10199993525258],[15.714287954146526,59.10200404512601],[15.712663631722556,59.10159664614461],[15.707265877911132,59.10101403207808],[15.705737923064802,59.100180989881885],[15.701174239545782,59.095040816150245],[15.701023968013578,59.09495836926428],[15.70107819185946,59.094450278682515],[15.703570428083461,59.09247279341213],[15.704173401628633,59.0922530869154],[15.70778694569131,59.08869979279811],[15.709544134523519,59.08777381281884],[15.715618057257718,59.08432808484952],[15.71349394908363,59.081461812100734],[15.701212018177804,59.07247262152026],[15.698651453182649,59.071429111571],[15.690890360425998,59.068112008772175],[15.672025620833313,59.06415202169003],[15.671907041023262,59.064143189952176],[15.658548995364413,59.0599484666905],[15.65781940911048,59.059719600082985],[15.639907049354582,59.05411435159177],[15.640080546345818,59.05396329939119],[15.639525677281481,59.05302674994003],[15.642553260155639,59.04983414364696],[15.642564368845308,59.04922182623979],[15.641960384180429,59.04897300697157],[15.641529764133127,59.04853542517503],[15.63857603073111,59.047961014585866],[15.633479641259317,59.03532857928745],[15.6409818012452,59.03452937780707],[15.639496288935172,59.0326046228688],[15.633402927576864,59.03126550921223],[15.632911533697161,59.029583679291136],[15.632865870833113,59.02949572631122],[15.631033238645555,59.02874460682197],[15.62968282435081,59.02819109078894],[15.62537218445045,59.024615141635145],[15.624570545358916,59.02521597950798],[15.624045379771323,59.02518370070305],[15.623456594012136,59.02512571291722],[15.621698699366585,59.02490048240525],[15.620950302712721,59.024801377170334],[15.62002799972132,59.024675354123914],[15.619053589095879,59.024387649388174],[15.618914544856748,59.02423509581129],[15.61879313435529,59.023929855876915],[15.618427814700073,59.0237951096092],[15.618062344812746,59.02374107206947],[15.617731726698068,59.02366912874747],[15.617471015468784,59.02347159746899],[15.617349460655134,59.0232740894403],[15.617838574996538,59.02219755930319],[15.618343118740698,59.02234139740467],[15.618569534958937,59.022269724547],[15.618656867566111,59.02205438394166],[15.619040253461394,59.02179440391444],[15.619179648874148,59.0216957598494],[15.62006907153493,59.020583439231],[15.620243309989876,59.02038617858765],[15.620434962550165,59.02028751897492],[15.620661560126734,59.020072287413974],[15.62069655584101,59.01994673846243],[15.620662103590698,59.01975824630115],[15.620714622002632,59.01949805528039],[15.620714871202345,59.01931859092195],[15.620645673162354,59.01910320458284],[15.619880584994773,59.01863615992504],[15.619793578775786,59.01855532470922],[15.619950827098334,59.01823244084821],[15.619863921409264,59.01810671752447],[15.61986416991009,59.01798111877036],[15.620107882194251,59.01789151184433],[15.620299571435664,59.01775703070368],[15.620439044328469,59.017613497055194],[15.620578516062798,59.01746996248388],[15.620805491303603,59.01696762193543],[15.620823060204636,59.016877869708765],[15.620753722864972,59.01668941673929],[15.621207599533406,59.015774333393146],[15.621190327077102,59.01567564317187],[15.62138190540715,59.01555902576033],[15.621630004772577,59.01542327680015],[15.626308197532246,59.01318415803709],[15.63079634377015,59.011385871284936],[15.63112201299546,59.01128387578373],[15.634622978179424,59.011175261515405],[15.63606538599942,59.011411573630845],[15.637575051051787,59.011989023734095],[15.638034853872908,59.012108756059],[15.638061235318268,59.012115703243296],[15.638721063104542,59.012314428266514],[15.639954406936194,59.01260416872656],[15.64024973842837,59.01265853885793],[15.640597365100199,59.01270414276213],[15.641571124245061,59.01279587969089],[15.644806692630835,59.01285606283392],[15.645746975096413,59.0127412390747],[15.647527938512047,59.01178442802814],[15.647842761184773,59.01153370424632],[15.649653598241072,59.011303888877165],[15.650348306601682,59.01148467254908],[15.651197460912234,59.01198898547413],[15.656426443824152,59.01045518160403],[15.655993576892355,59.01014018914491],[15.655316280560378,59.009950419868446],[15.652623715579606,59.00934401348333],[15.652380787070868,59.0092268588795],[15.652007859286465,59.00771832848385],[15.652796091529353,59.00686718437679],[15.654461369900703,59.004850852540734],[15.654602421293003,59.00456397023614],[15.654604134406613,59.003555974387545],[15.654522572753862,59.000695467551566],[15.65449405450537,58.99970815972792],[15.653801229039749,58.99924910648646],[15.651216892739148,58.99815811154399],[15.65030821193162,58.99613692703147],[15.671680659139035,58.98200497559411],[15.671780200505097,58.98200462999095],[15.680697740035619,58.981984137407736],[15.687632734689,58.98196845440531],[15.687701101246686,58.98547853749063],[15.687193762732075,58.9893905787662],[15.68750723865887,58.98922972024036],[15.6876130352428,58.988961544158954],[15.68754417359619,58.988755009553095],[15.687718566492844,58.98862051391766],[15.696680577472604,58.98579166665349],[15.698349011505995,58.98546540644527],[15.70082854939775,58.98505001717212],[15.70315947238299,58.984847401411294],[15.704965026239911,58.9852014402361],[15.705363721637084,58.98557773129196],[15.705483705038846,58.98592794549216],[15.70804909067068,58.98697677885975],[15.70850329341008,58.98703547304919],[15.70916321904018,58.98719892329445],[15.715700361188258,58.98816921240935],[15.718201340549225,58.988837836644656],[15.724527394195931,58.986368814369825],[15.724599013530518,58.986311319769925],[15.72501531494206,58.98596515457942],[15.72512201820762,58.9858889173488],[15.726456204494312,58.98508926049785],[15.72662412275675,58.98498765833194],[15.726854560063384,58.98482022104682],[15.728039575475778,58.98362693394162],[15.728079676660162,58.983489381519284],[15.727789063365572,58.98308515466777],[15.72734022945809,58.98269446591306],[15.727126951721765,58.98260048500045],[15.726708208829596,58.982460676292106],[15.725800615574466,58.98167914409297],[15.725706483742014,58.980108285823206],[15.727031335821932,58.979004716026466],[15.729279485518601,58.97672590501384],[15.753234585829334,58.95394968494105],[15.762836099480795,58.956166111094575],[15.763190586271579,58.95926955472129],[15.762802264408645,58.960392310463526],[15.762630213085629,58.96088973496966],[15.766796982420404,58.96652690461384],[15.76748533023109,58.966563648305836],[15.767561482994651,58.966528148993],[15.769733410255562,58.96551336039635],[15.77239022787199,58.9651247744284],[15.773957124617086,58.96545164447779],[15.772752199205813,58.966399349004334],[15.77943559999325,58.96862117365069],[15.7798380386483,58.96890914291124],[15.780396234573972,58.969218963998344],[15.780743410767677,58.96987884562643],[15.780375141162143,58.97316252733743],[15.785722402578044,58.98679246346178],[15.792264692422458,58.99037965602633],[15.8051662205834,59.001045096995995],[15.805981114435836,59.00186422899365],[15.806305869255795,59.002203134397966],[15.806930034112318,59.00267747201936],[15.806916405868161,59.01109872611704],[15.807032513026135,59.01153471685378],[15.807034688651887,59.011548182393774],[15.807085901707671,59.011670154430846],[15.808048336712265,59.01299405279965],[15.809721794060382,59.014398331767744],[15.820751693528258,59.018430982811985],[15.834784692915699,59.016249962293045],[15.836147619271076,59.016037723992696],[15.840630807508242,59.01530201201381],[15.842834521227012,59.01495484317793],[15.842898112252506,59.01494528936038],[15.845676303156575,59.01343639772039],[15.861068873878299,59.005065101849496],[15.867391105893132,59.00190241664464],[15.86742425283634,59.001883490045536],[15.868046843630928,59.00155982024456],[15.871533853953505,58.98982535913088],[15.875452905595111,58.98931612371855],[15.878620041610791,58.99020755147533],[15.88300897480365,58.987745378120366],[15.88345220880248,58.98584262060735],[15.883564173852607,58.98261792508172],[15.88356483502509,58.98257876775594],[15.883256335323168,58.981681248968805],[15.88243778346801,58.979145675267134],[15.888768028309162,58.97772347158401],[15.899962462073047,58.970543387383714],[15.911527173421366,58.962410078176184],[15.93808348323887,58.95635880645546],[15.950169726610664,58.953359649569144],[15.967410163645962,58.94715438682477]]]},"properties":{"lan_code":"04","kom_namn":"Vingåker","id":"0428","geo_point_2d":[59.0599775539,15.8863659646]}},{"type":"Feature","geometry":{"type":"Polygon","coordinates":[[[16.79900888441317,59.881501642426485],[16.77305720183254,59.89427163644607],[16.802124329688738,59.90868287827455],[16.794334849682254,59.94587319522564],[16.776870692480035,59.95526858443301],[16.774341182143914,59.97431427016281],[16.73826436950631,59.98288286250716],[16.7336987346394,60.0020021292555],[16.716176530686724,60.01085781190566],[16.727358909624375,60.04340893003462],[16.70742676723157,60.071713347307366],[16.714165695740014,60.08937139178464],[16.705162421602424,60.108958113425594],[16.7473011972787,60.135944334739754],[16.73363300841338,60.165638015572746],[16.704790577578322,60.195096410207796],[16.581599521699342,60.17983148672033],[16.527031478525863,60.16461812906757],[16.53895529093231,60.137426470591194],[16.502892724652064,60.13674411718795],[16.438070899172757,60.124767515768305],[16.417886124575833,60.11126554828817],[16.41671028059626,60.11048519587112],[16.38720130276213,60.08140562751261],[16.342433909355517,60.077461587561984],[16.34063761988517,60.07816008312468],[16.33278526064749,60.079823678821725],[16.3320363603405,60.08010436533143],[16.321611684263605,60.07358563529301],[16.264556296843082,60.07347476591052],[16.228179928639488,60.0789240279844],[16.184128590416616,60.076001936378134],[16.196571896971513,60.02931375967651],[16.189131036546122,60.00448202269612],[16.197451886800778,59.99546768597372],[16.145317188953463,59.990773412963534],[16.141880782490567,59.970427358056675],[16.16309748715141,59.96058225775534],[16.121182999594314,59.941979050549484],[16.092480469997057,59.93664991970067],[16.11449105329777,59.91035231613514],[16.104496680297945,59.90495990681301],[16.122298436625897,59.88196714209162],[16.206240753198603,59.85145113211103],[16.21717809582089,59.816527676184776],[16.282574180311048,59.77438019792561],[16.305614784757463,59.78673562695327],[16.340699032603645,59.79287127658154],[16.357225861800856,59.80781218364691],[16.410552008938105,59.82406476213471],[16.455356362012257,59.84554895249923],[16.506622568302884,59.82254063764919],[16.547873563617497,59.81114666938424],[16.600277329742365,59.766103901550444],[16.636597641515802,59.75871748415199],[16.67463527436083,59.7717851530497],[16.677602695579008,59.791306886300674],[16.728958496510423,59.7767628008779],[16.74377879521591,59.78541029858392],[16.75350152797514,59.791067649043356],[16.753681125818407,59.79174857045864],[16.761751660322727,59.79564186686698],[16.764764055926825,59.796883635437155],[16.7649622377014,59.80192699336808],[16.76491395280098,59.80210687542577],[16.769697998570376,59.80246425262436],[16.770025627597544,59.802752826625586],[16.785098818332422,59.80633879558301],[16.787917871987368,59.80772707844495],[16.785888429496374,59.80839524520767],[16.78715021869797,59.811269587803956],[16.799274111665426,59.81445509190703],[16.810153413376916,59.81944429858472],[16.808507461914967,59.84892379628056],[16.81837103132542,59.85243100051581],[16.827678575302304,59.85627636123914],[16.83655289437657,59.85994129709543],[16.828730289182147,59.864336036088],[16.826984484750852,59.86450293155799],[16.822341906954527,59.8649695128652],[16.81449742184018,59.86704949870364],[16.800581933082885,59.87150885564431],[16.800553467056424,59.87240578812425],[16.80055742370399,59.87307992225431],[16.79900888441317,59.881501642426485]]]},"properties":{"lan_code":"19","kom_namn":"Sala","id":"1981","geo_point_2d":[59.9598637707,16.4891852102]}},{"type":"Feature","geometry":{"type":"Polygon","coordinates":[[[17.32175618512162,60.13350453745762],[17.3586883662987,60.19361635535633],[17.375114808816967,60.22843675630914],[17.345837182948355,60.24565105137711],[17.284554463589938,60.258703488648365],[17.24818390048802,60.286036435702975],[17.209522942424567,60.302700722258095],[17.193815814023903,60.30081207098145],[17.182727473202625,60.29896853061631],[17.18071679237283,60.298634140198715],[17.161114543653913,60.28915070477322],[17.15754628829308,60.28742352333469],[17.130461985887678,60.287925947920584],[17.119702643519204,60.28572122907312],[17.111844533056225,60.2831223702825],[17.11016906850171,60.28269153126473],[17.1030960055043,60.280834794763166],[17.10999590659526,60.270537989502536],[17.112901624122124,60.269324814346525],[17.086136302204828,60.26044245168218],[17.058470710785194,60.27296594239247],[17.000558962090334,60.27569506759558],[16.992015719744295,60.28751392844617],[16.980521367321344,60.29527521032761],[16.939302504688627,60.28722629713172],[16.931567277072396,60.28719500462668],[16.914020163543704,60.28287506824405],[16.908877833231312,60.281497908258714],[16.891463572611944,60.25969705566729],[16.904900163804562,60.239488401656516],[16.84182308380399,60.21683971344059],[16.802606209239332,60.21212666710949],[16.796729323727426,60.19767523152409],[16.75006114992192,60.18863997964482],[16.704790577578322,60.195096410207796],[16.73363300841338,60.165638015572746],[16.7473011972787,60.135944334739754],[16.705162421602424,60.108958113425594],[16.714165695740014,60.08937139178464],[16.70742676723157,60.071713347307366],[16.727358909624375,60.04340893003462],[16.716176530686724,60.01085781190566],[16.7336987346394,60.0020021292555],[16.73826436950631,59.98288286250716],[16.774341182143914,59.97431427016281],[16.776870692480035,59.95526858443301],[16.794334849682254,59.94587319522564],[16.802124329688738,59.90868287827455],[16.77305720183254,59.89427163644607],[16.79900888441317,59.881501642426485],[16.799012501259096,59.88150057575731],[16.858497225283376,59.865877414953324],[16.909785708428643,59.8683828470745],[16.960972605492003,59.86239619546033],[17.002457383394585,59.828454807326],[17.077502140997737,59.85857073298654],[17.118856032869488,59.88307363213711],[17.127860094894405,59.88791397413842],[17.12920675581168,59.94592671378564],[17.124427379670536,59.97109734003718],[17.07985585192169,59.9722291616433],[17.084604859083775,59.9906361013625],[17.160013716989862,60.00662866730413],[17.206755702064378,60.0447974183902],[17.252248665499902,60.03858125917258],[17.279326985485362,60.04369358022795],[17.302702034524952,60.06457975253772],[17.308537510092062,60.10711327190116],[17.32175618512162,60.13350453745762]]]},"properties":{"lan_code":"03","kom_namn":"Heby","id":"0331","geo_point_2d":[60.0892258553,17.0148616188]}},{"type":"Feature","geometry":{"type":"Polygon","coordinates":[[[17.57886235570222,59.65328552810491],[17.617061194733513,59.67399478051331],[17.631421080965787,59.68176058282923],[17.62953593208904,59.69421181339935],[17.64110082058379,59.73097352564529],[17.60990574779649,59.74472540880603],[17.56520671338546,59.734059546291405],[17.538571100415123,59.733286882202094],[17.536451519476163,59.72038718025327],[17.50891791645446,59.68365863918832],[17.47410855714674,59.66643526993278],[17.421879594355108,59.659596122557694],[17.38509841427289,59.630813328704],[17.37778450901234,59.5972838696407],[17.40968443401392,59.56047789833708],[17.433681105444524,59.54661306685171],[17.464817350620244,59.50739744381054],[17.516392675682496,59.517964094402664],[17.545221369542343,59.54426817850754],[17.547184459751655,59.5474250532745],[17.548423047132633,59.54995726794384],[17.558886163474394,59.54856760063011],[17.559753311426544,59.54844922408165],[17.57403129620833,59.56144193419802],[17.55138668005741,59.5726253576968],[17.54437533361236,59.578798464250134],[17.542698817796364,59.58050875247189],[17.513564167729776,59.6115510273191],[17.539613395911207,59.635257890470164],[17.578176725184978,59.64028677721655],[17.590452930977488,59.6497562020998],[17.58423453271621,59.651120434198646],[17.57886235570222,59.65328552810491]]]},"properties":{"lan_code":"03","kom_namn":"Håbo","id":"0305","geo_point_2d":[59.6269271695,17.503355759]}},{"type":"Feature","geometry":{"type":"Polygon","coordinates":[[[16.702413326094206,59.48772100204659],[16.687659425182165,59.48955466055458],[16.662131767105464,59.49040281057161],[16.659484145293984,59.48990829963136],[16.62409789178576,59.48264741315602],[16.619567265288488,59.482078401065436],[16.597123115000763,59.47983480380905],[16.554863099109777,59.475280618250764],[16.542820200955482,59.47396122797955],[16.5374611461486,59.47337693884938],[16.443716719168734,59.46328140543178],[16.422381203233723,59.46100445596543],[16.37150554056558,59.46728475385336],[16.322702143895082,59.452879757393845],[16.300544955598674,59.45760194194513],[16.26312382269248,59.45238828873427],[16.24880882951376,59.44020763818142],[16.24819678778348,59.43330106273611],[16.248012863529173,59.43189223457384],[16.24785886406167,59.429802246685334],[16.247545275882306,59.42621586099496],[16.261563014075474,59.409023946659616],[16.26178970983699,59.40902315593832],[16.261866934263775,59.40920242721603],[16.2619819259336,59.409242420188676],[16.269265505591903,59.40637578860912],[16.272988493525226,59.40504677241673],[16.29892248342621,59.39922116989929],[16.3055285395703,59.399411491637885],[16.300200870895594,59.39770830468228],[16.2802018071894,59.393190718938214],[16.273628370671172,59.38854657907057],[16.266484733275487,59.36195201357715],[16.244727207281752,59.360514012587956],[16.24062714991058,59.3602855944865],[16.235612196051108,59.35996551089669],[16.211671536774436,59.360095615172355],[16.210327113837028,59.3599606314083],[16.209577992395065,59.35980136200915],[16.203527751903124,59.35850035801189],[16.19211564756921,59.35373699670855],[16.185191703365074,59.35217758444802],[16.181160318670237,59.35204118333315],[16.156698945471835,59.34642762675521],[16.156657428650412,59.346451203234146],[16.11307331538887,59.35029335688281],[16.105182599140285,59.35049869716356],[16.072322589897755,59.35196871967308],[16.03512872205868,59.369261522456114],[15.9964443415585,59.359541098614066],[15.990664587231903,59.3567143534817],[15.93832211174481,59.34139309184579],[15.940570289653394,59.32262032729839],[15.930874907409839,59.32007159574705],[15.91107792200456,59.30425361604965],[15.908164988695304,59.30105564704798],[15.906850657154774,59.2995934340609],[15.87963465795383,59.289996910209254],[15.876467953042534,59.289213127066354],[15.87654906661078,59.289195130199275],[15.876638916062195,59.2891591843347],[15.8772908831215,59.288413754802285],[15.87739366410016,59.28827007309947],[15.878035170228086,59.28279836015023],[15.877359922801384,59.280868703211056],[15.870020014064028,59.28607442514746],[15.867880658735821,59.29010151481591],[15.864693652157904,59.284039074159914],[15.892737994887993,59.23048348606218],[16.02436530527126,59.26300877705142],[16.072982764492806,59.247208430702884],[16.10218697982497,59.202838412697524],[16.174759433931044,59.197691557469405],[16.19525017125097,59.183009147571795],[16.212879764226113,59.1453577994564],[16.233143284478633,59.15678110763464],[16.348856497490292,59.16490757605875],[16.381388642048616,59.191407120133654],[16.45848898900001,59.19746366655573],[16.595230718594408,59.202025136408174],[16.61468510281438,59.20989319743618],[16.662207687753448,59.21662398467492],[16.75538813115079,59.2208264855417],[16.840170136773878,59.23847805998001],[16.83442207844434,59.30843854660915],[16.825014473471242,59.35669849073873],[16.83453631472547,59.39153523262615],[16.829681883291006,59.40438603882375],[16.788873098825945,59.42105072218367],[16.71745679606029,59.45694580093287],[16.69776656742226,59.47012387003087],[16.702413326094206,59.48772100204659]]]},"properties":{"lan_code":"04","kom_namn":"Eskilstuna","id":"0484","geo_point_2d":[59.3181772378,16.4238310946]}},{"type":"Feature","geometry":{"type":"Polygon","coordinates":[[[15.976186453904553,60.18595287752296],[15.968666082121079,60.184266131400065],[15.965868738452384,60.18276356464123],[15.881982632487636,60.16629714763263],[15.858247133553318,60.16931820633264],[15.836548658281103,60.17207578584741],[15.812012247141597,60.17588460747866],[15.805126489515066,60.176918312292194],[15.801416225264964,60.17747512350994],[15.79070288165834,60.16298386617975],[15.775954136216168,60.15288063331785],[15.725374323882532,60.14491323817066],[15.726497727398817,60.13786875303106],[15.765002974168105,60.13062618788516],[15.759941808680066,60.1157105963226],[15.72525260079284,60.09922420399994],[15.716077548892736,60.08171397563977],[15.71768469615068,60.08178720770526],[15.722942144101552,60.069465330226734],[15.722912842356862,60.069363070750576],[15.722520228310435,60.06422784784682],[15.722503671020936,60.064080243326224],[15.694908655989316,60.035455752083145],[15.731271811852972,60.02849486747488],[15.73115225924375,60.028102495625305],[15.730885477933029,60.0230065245485],[15.759449841587903,60.04189001409223],[15.799680842553633,60.04389137528266],[15.819103004960528,60.02860346591364],[15.85795008687792,60.04743074067327],[15.880866148715373,60.014575848905466],[15.913258953490088,60.007861755175426],[15.97356024802745,60.00313706303017],[15.990951046083289,59.9855907965974],[16.014100762677458,59.98352004870237],[16.050675971399592,59.99236829599638],[16.092480469997057,59.93664991970067],[16.121182999594314,59.941979050549484],[16.16309748715141,59.96058225775534],[16.141880782490567,59.970427358056675],[16.145317188953463,59.990773412963534],[16.197451886800778,59.99546768597372],[16.189131036546122,60.00448202269612],[16.196571896971513,60.02931375967651],[16.184128590416616,60.076001936378134],[16.181516812549496,60.08449312160625],[16.14179794832895,60.09249618823397],[16.16034750180894,60.11601201710443],[16.16340704616032,60.1196889171162],[16.163851297189463,60.12026031293888],[16.14736835294164,60.1298760339848],[16.13345706579469,60.13793067430047],[16.13235138257105,60.13856923475366],[16.12850596056175,60.13927550125447],[16.115268846880657,60.14158865247298],[16.102503447045173,60.14252849973396],[16.09682153607649,60.14295174689683],[16.077619502519955,60.144985648777215],[16.057005696317358,60.14706356578246],[16.03823438166351,60.16416790121085],[16.034243351071183,60.169734160433414],[16.016906890138355,60.181449165713325],[15.991373577959017,60.18529306887458],[15.988478584507375,60.18516945808043],[15.98217660946833,60.185302922395636],[15.976186453904553,60.18595287752296]]]},"properties":{"lan_code":"19","kom_namn":"Norberg","id":"1962","geo_point_2d":[60.0768065074,15.9689169851]}},{"type":"Feature","geometry":{"type":"Polygon","coordinates":[[[15.867758114872421,59.457924143981714],[15.832247596982514,59.44762854241008],[15.820930591825126,59.46836216174804],[15.793513625993077,59.48627510190545],[15.75083475052003,59.532194193900004],[15.713399609485645,59.525748142957426],[15.719741481559913,59.50751541744091],[15.690556328794026,59.496107711504244],[15.685508401173484,59.47741858915289],[15.71282661893776,59.47579503595454],[15.715739227083711,59.45046773875771],[15.729682981258772,59.431699315158156],[15.72120367297288,59.41039406655236],[15.675958745420942,59.406105494329175],[15.673647940337696,59.40622704835371],[15.626717491993412,59.403838768465334],[15.603971076571861,59.39655311999817],[15.599332190134222,59.37325074514815],[15.63477260936913,59.3221138579678],[15.607699511947406,59.28873104656296],[15.691675611524543,59.270525787830344],[15.726539744112433,59.22339647923371],[15.798174971474994,59.23052542641585],[15.762037679464507,59.197919167307845],[15.892737994887993,59.23048348606218],[15.864693652157904,59.284039074159914],[15.867880658735821,59.29010151481591],[15.870020014064028,59.28607442514746],[15.877359922801384,59.280868703211056],[15.878035170228086,59.28279836015023],[15.87739366410016,59.28827007309947],[15.8772908831215,59.288413754802285],[15.876638916062195,59.2891591843347],[15.87654906661078,59.289195130199275],[15.876467953042534,59.289213127066354],[15.87963465795383,59.289996910209254],[15.906850657154774,59.2995934340609],[15.908164988695304,59.30105564704798],[15.91107792200456,59.30425361604965],[15.930874907409839,59.32007159574705],[15.940570289653394,59.32262032729839],[15.93832211174481,59.34139309184579],[15.990664587231903,59.3567143534817],[15.9964443415585,59.359541098614066],[15.97829561283534,59.39540452036787],[15.952891644251775,59.41002295103668],[15.885657873183083,59.424507680475514],[15.867758114872421,59.457924143981714]]]},"properties":{"lan_code":"19","kom_namn":"Arboga","id":"1984","geo_point_2d":[59.3548357575,15.7855102537]}},{"type":"Feature","geometry":{"type":"Polygon","coordinates":[[[16.840170136773878,59.23847805998001],[16.75538813115079,59.2208264855417],[16.662207687753448,59.21662398467492],[16.61468510281438,59.20989319743618],[16.595230718594408,59.202025136408174],[16.45848898900001,59.19746366655573],[16.464132377027315,59.187939880933925],[16.458268650757624,59.131451137637114],[16.463321067654892,59.10066726218909],[16.524353406678784,59.08033984404922],[16.51059127316749,59.060995717776045],[16.541127791379715,59.03069915861543],[16.566721665471558,59.02948495835852],[16.544344067517066,58.9953939765874],[16.501992306177204,58.976823748603636],[16.49063899139132,58.96346907299747],[16.527605981357983,58.946708076630905],[16.48402129339652,58.917876749675],[16.43800651227118,58.9268643353964],[16.4179372670562,58.917710101936116],[16.471275945355664,58.89614381779682],[16.490910235167433,58.898404502141624],[16.55465271853837,58.873148272028445],[16.58570442976164,58.89313841089309],[16.631592197063437,58.87899375530596],[16.672181843985495,58.89669031053938],[16.725477836662378,58.89373506720578],[16.733452247041466,58.929879173956266],[16.767310518127115,58.93404930958143],[16.803426454880917,58.94856813257026],[16.836440842391514,58.94394040102547],[16.88633924777644,58.944607462097125],[16.869555149392692,58.962119606185624],[16.882606837671,58.989085595566436],[16.98109630036081,59.03051939491273],[17.040611577242746,59.01810592043778],[17.009540557358566,59.03043477823166],[16.990200968031868,59.055581844737524],[16.944779758641012,59.08215556798415],[16.925790757026594,59.08658630897966],[16.880617779926858,59.111829761105405],[16.908396396215355,59.13437094997446],[16.882346000138714,59.15091785422004],[16.937284060676898,59.205127971519765],[16.929208511205054,59.21232565010018],[16.88704821026778,59.2139503919883],[16.843338015159134,59.22647302353574],[16.840170136773878,59.23847805998001]]]},"properties":{"lan_code":"04","kom_namn":"Flen","id":"0482","geo_point_2d":[59.0655069978,16.7017123345]}},{"type":"Feature","geometry":{"type":"Polygon","coordinates":[[[16.092480469997057,59.93664991970067],[16.050675971399592,59.99236829599638],[16.014100762677458,59.98352004870237],[15.990951046083289,59.9855907965974],[15.97356024802745,60.00313706303017],[15.913258953490088,60.007861755175426],[15.880866148715373,60.014575848905466],[15.85795008687792,60.04743074067327],[15.819103004960528,60.02860346591364],[15.799680842553633,60.04389137528266],[15.759449841587903,60.04189001409223],[15.730885477933029,60.0230065245485],[15.69860219256747,60.01536187500906],[15.698765525605717,60.014264138291736],[15.69917589959542,60.01393664650603],[15.699830519555965,60.013414220857975],[15.701552858711802,60.012750575881604],[15.703005839216468,60.0108906728325],[15.706253443012725,60.00654154157806],[15.714407198779579,60.00015006201396],[15.71366124933956,59.98630756736655],[15.713501908912184,59.98521932896456],[15.719539050512418,59.97373358140777],[15.681751058582703,59.93792237120732],[15.722279900358204,59.90527492700156],[15.760874675748523,59.9085934620317],[15.771752466534322,59.881021332871605],[15.806720046703918,59.890301281066364],[15.864005190416773,59.895072656780805],[15.921130961639344,59.85481328263947],[15.941466979997749,59.850054129279535],[16.00363503717154,59.86212530979769],[16.03306760899486,59.87611875297149],[16.0542181736231,59.897065756018826],[16.11449105329777,59.91035231613514],[16.092480469997057,59.93664991970067]]]},"properties":{"lan_code":"19","kom_namn":"Fagersta","id":"1982","geo_point_2d":[59.9473411343,15.8870799891]}}]}